[
  {
    "OBJECT_NAME": "STARLINK-31291",
    "OBJECT_ID": "24041Y",
    "EPOCH": "2025-11-11T06:49:14.340000",
    "MEAN_MOTION": 15.27572562,
    "ECCENTRICITY": 8.78e-05,
    "INCLINATION": 43.0053,
    "RA_OF_ASC_NODE": 259.3255,
    "ARG_OF_PERICENTER": 288.6982,
    "MEAN_ANOMALY": 71.3774,
    "EPHEMERIS_TYPE": 0,
    "CLASSIFICATION_TYPE": "U",
    "NORAD_CAT_ID": 59096,
    "ELEMENT_SET_NO": 999,
    "REV_AT_EPOCH": 9616,
    "BSTAR": 0.00028772,
    "MEAN_MOTION_DOT": 7.662e-05,
    "MEAN_MOTION_DDOT": 0.0,
    "TLE_LINE1": "1 59096U 24041Y   25315.28419375  .00007662  00000+0  28772-3 0  9994",
    "TLE_LINE2": "2 59096  43.0053 259.3255 0000878 288.6982  71.3774 15.27572562 96166",
    "COMMENT": "Grouped by shell and plane from TLE"
  },
  {
    "OBJECT_NAME": "STARLINK-31679",
    "OBJECT_ID": "24073J",
    "EPOCH": "2025-11-11T05:56:27.950208",
    "MEAN_MOTION": 15.27608317,
    "ECCENTRICITY": 0.0001554,
    "INCLINATION": 43.0025,
    "RA_OF_ASC_NODE": 256.3446,
    "ARG_OF_PERICENTER": 270.4625,
    "MEAN_ANOMALY": 89.6048,
    "EPHEMERIS_TYPE": 0,
    "CLASSIFICATION_TYPE": "U",
    "NORAD_CAT_ID": 59519,
    "ELEMENT_SET_NO": 999,
    "REV_AT_EPOCH": 8818,
    "BSTAR": 0.00025801000000000003,
    "MEAN_MOTION_DOT": 6.85e-05,
    "MEAN_MOTION_DDOT": 0.0,
    "TLE_LINE1": "1 59519U 24073J   25315.24754572  .00006850  00000+0  25801-3 0  9994",
    "TLE_LINE2": "2 59519  43.0025 256.3446 0001554 270.4625  89.6048 15.27608317 88186",
    "COMMENT": "Grouped by shell and plane from TLE"
  },
  {
    "OBJECT_NAME": "STARLINK-31724",
    "OBJECT_ID": "24074W",
    "EPOCH": "2025-11-11T06:29:42.490752",
    "MEAN_MOTION": 15.27611082,
    "ECCENTRICITY": 0.0001588,
    "INCLINATION": 43.0009,
    "RA_OF_ASC_NODE": 256.2507,
    "ARG_OF_PERICENTER": 269.5317,
    "MEAN_ANOMALY": 90.5353,
    "EPHEMERIS_TYPE": 0,
    "CLASSIFICATION_TYPE": "U",
    "NORAD_CAT_ID": 59554,
    "ELEMENT_SET_NO": 999,
    "REV_AT_EPOCH": 8831,
    "BSTAR": 0.00025134,
    "MEAN_MOTION_DOT": 6.667e-05,
    "MEAN_MOTION_DDOT": 0.0,
    "TLE_LINE1": "1 59554U 24074W   25315.27063068  .00006667  00000+0  25134-3 0  9995",
    "TLE_LINE2": "2 59554  43.0009 256.2507 0001588 269.5317  90.5353 15.27611082 88316",
    "COMMENT": "Grouped by shell and plane from TLE"
  },
  {
    "OBJECT_NAME": "STARLINK-31995",
    "OBJECT_ID": "24107P",
    "EPOCH": "2025-11-11T02:53:07.123776",
    "MEAN_MOTION": 15.3020509,
    "ECCENTRICITY": 0.000163,
    "INCLINATION": 53.1594,
    "RA_OF_ASC_NODE": 256.2271,
    "ARG_OF_PERICENTER": 101.8206,
    "MEAN_ANOMALY": 258.2978,
    "EPHEMERIS_TYPE": 0,
    "CLASSIFICATION_TYPE": "U",
    "NORAD_CAT_ID": 59958,
    "ELEMENT_SET_NO": 999,
    "REV_AT_EPOCH": 8044,
    "BSTAR": 0.00018817,
    "MEAN_MOTION_DOT": 5.219e-05,
    "MEAN_MOTION_DDOT": 0.0,
    "TLE_LINE1": "1 59958U 24107P   25315.12022134  .00005219  00000+0  18817-3 0  9995",
    "TLE_LINE2": "2 59958  53.1594 256.2271 0001630 101.8206 258.2978 15.30205090 80440",
    "COMMENT": "Grouped by shell and plane from TLE"
  },
  {
    "OBJECT_NAME": "STARLINK-31989",
    "OBJECT_ID": "24107Q",
    "EPOCH": "2025-11-11T05:52:06.559968",
    "MEAN_MOTION": 15.30198565,
    "ECCENTRICITY": 0.0001523,
    "INCLINATION": 53.16,
    "RA_OF_ASC_NODE": 255.5778,
    "ARG_OF_PERICENTER": 79.7754,
    "MEAN_ANOMALY": 280.3418,
    "EPHEMERIS_TYPE": 0,
    "CLASSIFICATION_TYPE": "U",
    "NORAD_CAT_ID": 59959,
    "ELEMENT_SET_NO": 999,
    "REV_AT_EPOCH": 8166,
    "BSTAR": 0.0001185,
    "MEAN_MOTION_DOT": 3.152e-05,
    "MEAN_MOTION_DDOT": 0.0,
    "TLE_LINE1": "1 59959U 24107Q   25315.24452037  .00003152  00000+0  11850-3 0  9992",
    "TLE_LINE2": "2 59959  53.1600 255.5778 0001523  79.7754 280.3418 15.30198565 81663",
    "COMMENT": "Grouped by shell and plane from TLE"
  },
  {
    "OBJECT_NAME": "STARLINK-31856",
    "OBJECT_ID": "24107R",
    "EPOCH": "2025-11-11T05:56:39.927840",
    "MEAN_MOTION": 15.30197897,
    "ECCENTRICITY": 0.0001345,
    "INCLINATION": 53.1592,
    "RA_OF_ASC_NODE": 255.5969,
    "ARG_OF_PERICENTER": 96.0982,
    "MEAN_ANOMALY": 264.0172,
    "EPHEMERIS_TYPE": 0,
    "CLASSIFICATION_TYPE": "U",
    "NORAD_CAT_ID": 59960,
    "ELEMENT_SET_NO": 999,
    "REV_AT_EPOCH": 8166,
    "BSTAR": 6.614e-05,
    "MEAN_MOTION_DOT": 1.6e-05,
    "MEAN_MOTION_DDOT": 0.0,
    "TLE_LINE1": "1 59960U 24107R   25315.24768435  .00001600  00000+0  66140-4 0  9995",
    "TLE_LINE2": "2 59960  53.1592 255.5969 0001345  96.0982 264.0172 15.30197897 81667",
    "COMMENT": "Grouped by shell and plane from TLE"
  },
  {
    "OBJECT_NAME": "STARLINK-31993",
    "OBJECT_ID": "24107S",
    "EPOCH": "2025-11-11T03:02:14.597376",
    "MEAN_MOTION": 15.30206319,
    "ECCENTRICITY": 0.0001246,
    "INCLINATION": 53.1587,
    "RA_OF_ASC_NODE": 256.2656,
    "ARG_OF_PERICENTER": 98.2733,
    "MEAN_ANOMALY": 261.8409,
    "EPHEMERIS_TYPE": 0,
    "CLASSIFICATION_TYPE": "U",
    "NORAD_CAT_ID": 59961,
    "ELEMENT_SET_NO": 999,
    "REV_AT_EPOCH": 8158,
    "BSTAR": 0.0002833,
    "MEAN_MOTION_DOT": 8.042e-05,
    "MEAN_MOTION_DDOT": 0.0,
    "TLE_LINE1": "1 59961U 24107S   25315.12655784  .00008042  00000+0  28330-3 0  9990",
    "TLE_LINE2": "2 59961  53.1587 256.2656 0001246  98.2733 261.8409 15.30206319 81580",
    "COMMENT": "Grouped by shell and plane from TLE"
  },
  {
    "OBJECT_NAME": "STARLINK-31980",
    "OBJECT_ID": "24107T",
    "EPOCH": "2025-11-11T06:20:57.737760",
    "MEAN_MOTION": 15.30208968,
    "ECCENTRICITY": 0.0001374,
    "INCLINATION": 53.1616,
    "RA_OF_ASC_NODE": 255.6999,
    "ARG_OF_PERICENTER": 94.5624,
    "MEAN_ANOMALY": 265.5533,
    "EPHEMERIS_TYPE": 0,
    "CLASSIFICATION_TYPE": "U",
    "NORAD_CAT_ID": 59962,
    "ELEMENT_SET_NO": 999,
    "REV_AT_EPOCH": 8166,
    "BSTAR": 9.644700000000001e-05,
    "MEAN_MOTION_DOT": 2.499e-05,
    "MEAN_MOTION_DDOT": 0.0,
    "TLE_LINE1": "1 59962U 24107T   25315.26455715  .00002499  00000+0  96447-4 0  9993",
    "TLE_LINE2": "2 59962  53.1616 255.6999 0001374  94.5624 265.5533 15.30208968 81667",
    "COMMENT": "Grouped by shell and plane from TLE"
  },
  {
    "OBJECT_NAME": "STARLINK-31991",
    "OBJECT_ID": "24107U",
    "EPOCH": "2025-11-11T02:57:40.595328",
    "MEAN_MOTION": 15.30191625,
    "ECCENTRICITY": 0.0001054,
    "INCLINATION": 53.1613,
    "RA_OF_ASC_NODE": 256.2443,
    "ARG_OF_PERICENTER": 105.1218,
    "MEAN_ANOMALY": 254.99,
    "EPHEMERIS_TYPE": 0,
    "CLASSIFICATION_TYPE": "U",
    "NORAD_CAT_ID": 59963,
    "ELEMENT_SET_NO": 999,
    "REV_AT_EPOCH": 8164,
    "BSTAR": 0.00012734,
    "MEAN_MOTION_DOT": 3.413e-05,
    "MEAN_MOTION_DDOT": 0.0,
    "TLE_LINE1": "1 59963U 24107U   25315.12338652  .00003413  00000+0  12734-3 0  9992",
    "TLE_LINE2": "2 59963  53.1613 256.2443 0001054 105.1218 254.9900 15.30191625 81648",
    "COMMENT": "Grouped by shell and plane from TLE"
  },
  {
    "OBJECT_NAME": "STARLINK-31979",
    "OBJECT_ID": "24107V",
    "EPOCH": "2025-11-11T03:08:18.415680",
    "MEAN_MOTION": 15.30201331,
    "ECCENTRICITY": 0.0001179,
    "INCLINATION": 53.1608,
    "RA_OF_ASC_NODE": 256.2881,
    "ARG_OF_PERICENTER": 78.5924,
    "MEAN_ANOMALY": 281.521,
    "EPHEMERIS_TYPE": 0,
    "CLASSIFICATION_TYPE": "U",
    "NORAD_CAT_ID": 59964,
    "ELEMENT_SET_NO": 999,
    "REV_AT_EPOCH": 8159,
    "BSTAR": 9.161500000000001e-05,
    "MEAN_MOTION_DOT": 2.355e-05,
    "MEAN_MOTION_DDOT": 0.0,
    "TLE_LINE1": "1 59964U 24107V   25315.13076870  .00002355  00000+0  91615-4 0  9995",
    "TLE_LINE2": "2 59964  53.1608 256.2881 0001179  78.5924 281.5210 15.30201331 81594",
    "COMMENT": "Grouped by shell and plane from TLE"
  },
  {
    "OBJECT_NAME": "STARLINK-32203",
    "OBJECT_ID": "24136C",
    "EPOCH": "2025-11-11T03:06:48.597696",
    "MEAN_MOTION": 15.30192643,
    "ECCENTRICITY": 0.0001482,
    "INCLINATION": 53.1615,
    "RA_OF_ASC_NODE": 256.3433,
    "ARG_OF_PERICENTER": 99.4433,
    "MEAN_ANOMALY": 260.6736,
    "EPHEMERIS_TYPE": 0,
    "CLASSIFICATION_TYPE": "U",
    "NORAD_CAT_ID": 60331,
    "ELEMENT_SET_NO": 999,
    "REV_AT_EPOCH": 7165,
    "BSTAR": 2.9372e-05,
    "MEAN_MOTION_DOT": 5.1e-06,
    "MEAN_MOTION_DDOT": 0.0,
    "TLE_LINE1": "1 60331U 24136C   25315.12972914  .00000510  00000+0  29372-4 0  9992",
    "TLE_LINE2": "2 60331  53.1615 256.3433 0001482  99.4433 260.6736 15.30192643 71652",
    "COMMENT": "Grouped by shell and plane from TLE"
  },
  {
    "OBJECT_NAME": "STARLINK-32279",
    "OBJECT_ID": "24158P",
    "EPOCH": "2025-11-11T05:29:23.527392",
    "MEAN_MOTION": 15.30191835,
    "ECCENTRICITY": 0.0001114,
    "INCLINATION": 53.1615,
    "RA_OF_ASC_NODE": 255.8195,
    "ARG_OF_PERICENTER": 101.6118,
    "MEAN_ANOMALY": 258.5008,
    "EPHEMERIS_TYPE": 0,
    "CLASSIFICATION_TYPE": "U",
    "NORAD_CAT_ID": 61003,
    "ELEMENT_SET_NO": 999,
    "REV_AT_EPOCH": 6751,
    "BSTAR": 7.5972e-05,
    "MEAN_MOTION_DOT": 1.891e-05,
    "MEAN_MOTION_DDOT": 0.0,
    "TLE_LINE1": "1 61003U 24158P   25315.22874453  .00001891  00000+0  75972-4 0  9993",
    "TLE_LINE2": "2 61003  53.1615 255.8195 0001114 101.6118 258.5008 15.30191835 67516",
    "COMMENT": "Grouped by shell and plane from TLE"
  },
  {
    "OBJECT_NAME": "STARLINK-32336",
    "OBJECT_ID": "24158Q",
    "EPOCH": "2025-11-11T03:49:16.217472",
    "MEAN_MOTION": 15.30185745,
    "ECCENTRICITY": 0.0001402,
    "INCLINATION": 53.1605,
    "RA_OF_ASC_NODE": 256.103,
    "ARG_OF_PERICENTER": 82.4866,
    "MEAN_ANOMALY": 277.6294,
    "EPHEMERIS_TYPE": 0,
    "CLASSIFICATION_TYPE": "U",
    "NORAD_CAT_ID": 61004,
    "ELEMENT_SET_NO": 999,
    "REV_AT_EPOCH": 6750,
    "BSTAR": 4.3152e-05,
    "MEAN_MOTION_DOT": 9.18e-06,
    "MEAN_MOTION_DDOT": 0.0,
    "TLE_LINE1": "1 61004U 24158Q   25315.15921548  .00000918  00000+0  43152-4 0  9998",
    "TLE_LINE2": "2 61004  53.1605 256.1030 0001402  82.4866 277.6294 15.30185745 67505",
    "COMMENT": "Grouped by shell and plane from TLE"
  }
]